NORAD_CAT_ID,OBJECT_NAME,OBJECT_TYPE,EPOCH,MEAN_MOTION,ECCENTRICITY,INCLINATION,RA_OF_ASC_NODE,ARG_OF_PERICENTER,MEAN_ANOMALY,BSTAR,MEAN_MOTION_DOT,MEAN_MOTION_DDOT,TLE_LINE0,TLE_LINE1,TLE_LINE2,SEMIMAJOR_AXIS,PERIOD,APOGEE,PERIGEE,DECAYED
53150.0,STARLINK-4038,PAYLOAD,2023-02-13 13:25:54,15.0887428,0.0001222,53.2165,152.5718,80.2905,279.8225,0.0028019,0.00044629,0.0,0 STARLINK-4038,1 53150U 22083U   23044.55965492  .00044629  00000-0  28019-2 0  9994,2 53150  53.2165 152.5718 0001222  80.2905 279.8225 15.08874280 32258,6917.776,95.435,540.486,538.795,0.0
53150.0,STARLINK-4038,PAYLOAD,2023-02-13 18:12:03,15.08889795,0.0001202,53.2167,151.6796,77.9601,282.1526,0.0033411,0.00053361,0.0,0 STARLINK-4038,1 53150U 22083U   23044.75837110  .00053361  00000-0  33411-2 0  9996,2 53150  53.2167 151.6796 0001202  77.9601 282.1526 15.08889795 32911,6917.728,95.434,540.425,538.762,0.0
53150.0,STARLINK-4038,PAYLOAD,2023-02-14 00:33:35,15.08834334,0.0001101,53.2176,150.4916,90.9308,269.181,0.0027581,0.00043874,0.0,0 STARLINK-4038,1 53150U 22083U   23045.02333290  .00043874  00000-0  27581-2 0  9996,2 53150  53.2176 150.4916 0001101  90.9308 269.1810 15.08834334 32953,6917.898,95.438,540.524,539.001,0.0
53150.0,STARLINK-4038,PAYLOAD,2023-02-14 13:16:41,15.08875028,0.0002143,53.217,148.111,100.746,259.3774,0.0031129,0.00049652,0.0,0 STARLINK-4038,1 53150U 22083U   23045.55325423  .00049652  00000-0  31129-2 0  9996,2 53150  53.2170 148.1110 0002143 100.7460 259.3774 15.08875028 32408,6917.773,95.435,541.121,538.156,0.0
53150.0,STARLINK-4038,PAYLOAD,2023-02-14 18:02:50,15.08865483,0.0001426,53.2162,147.2216,84.6111,275.5043,0.0020288,0.00032171,0.0,0 STARLINK-4038,1 53150U 22083U   23045.75197270  .00032171  00000-0  20288-2 0  9997,2 53150  53.2162 147.2216 0001426  84.6111 275.5043 15.08865483 33068,6917.802,95.436,540.654,538.681,0.0
53150.0,STARLINK-4038,PAYLOAD,2023-02-15 11:32:04,15.08871937,0.0001204,53.2173,143.9495,109.8652,250.247,0.0026629,0.00042384,0.0,0 STARLINK-4038,1 53150U 22083U   23046.48061282  .00042384  00000-0  26629-2 0  9993,2 53150  53.2173 143.9495 0001204 109.8652 250.2470 15.08871937 33173,6917.783,95.436,540.481,538.815,0.0
53150.0,STARLINK-4038,PAYLOAD,2023-02-15 13:07:28,15.08877234,0.0001222,53.2175,143.652,68.2293,291.8829,0.0042315,0.00067773,0.0,0 STARLINK-4038,1 53150U 22083U   23046.54685406  .00067773  00000-0  42315-2 0  9999,2 53150  53.2175 143.6520 0001222  68.2293 291.8829 15.08877234 32556,6917.767,95.435,540.477,538.786,0.0
53150.0,STARLINK-4038,PAYLOAD,2023-02-15 17:53:36,15.0890506,0.0001199,53.2174,142.7601,67.8111,292.3008,0.0040549,0.00064956,0.0,0 STARLINK-4038,1 53150U 22083U   23046.74556706  .00064956  00000-0  40549-2 0  9998,2 53150  53.2174 142.7601 0001199  67.8111 292.3008 15.08905060 32589,6917.682,95.433,540.376,538.717,0.0
53150.0,STARLINK-4038,PAYLOAD,2023-02-16 11:22:51,15.08887428,0.0001154,53.2178,139.4892,86.9531,273.1593,0.0033422,0.00053375,0.0,0 STARLINK-4038,1 53150U 22083U   23047.47420192  .00053375  00000-0  33422-2 0  9993,2 53150  53.2178 139.4892 0001154  86.9531 273.1593 15.08887428 33323,6917.735,95.435,540.399,538.802,0.0
53150.0,STARLINK-4038,PAYLOAD,2023-02-16 12:58:13,15.08897697,0.0001199,53.2183,139.1913,94.0796,266.0333,0.0036047,0.00057641,0.0,0 STARLINK-4038,1 53150U 22083U   23047.54043926  .00057641  00000-0  36047-2 0  9993,2 53150  53.2183 139.1913 0001199  94.0796 266.0333 15.08897697 32705,6917.704,95.434,540.398,538.74,0.0
53150.0,STARLINK-4038,PAYLOAD,2023-02-16 17:44:22,15.08928638,0.0001157,53.2181,138.2985,86.4709,273.6415,0.0039764,0.00063723,0.0,0 STARLINK-4038,1 53150U 22083U   23047.73914928  .00063723  00000-0  39764-2 0  9990,2 53150  53.2181 138.2985 0001157  86.4709 273.6415 15.08928638 32733,6917.609,95.432,540.275,538.674,0.0
53150.0,STARLINK-4038,PAYLOAD,2023-02-17 06:27:29,15.08789217,4.06e-05,53.2195,135.9238,144.2479,215.8541,0.0022669,0.00035924,0.0,0 STARLINK-4038,1 53150U 22083U   23048.26908717  .00035924  00000-0  22669-2 0  9996,2 53150  53.2195 135.9238 0000406 144.2479 215.8541 15.08789217 33441,6918.036,95.441,540.181,539.62,0.0
53150.0,STARLINK-4038,PAYLOAD,2023-02-17 12:49:02,15.08819104,9.45e-05,53.2182,134.7325,127.7525,232.3552,0.0022522,0.00035717,0.0,0 STARLINK-4038,1 53150U 22083U   23048.53405185  .00035717  00000-0  22522-2 0  9995,2 53150  53.2182 134.7325 0000945 127.7525 232.3552 15.08819104 32856,6917.944,95.439,540.463,539.156,0.0
53150.0,STARLINK-4038,PAYLOAD,2023-02-17 15:59:48,15.0882769,8.09e-05,53.2186,134.1379,123.0028,237.1042,0.0021017,0.00033308,0.0,0 STARLINK-4038,1 53150U 22083U   23048.66653376  .00033308  00000-0  21017-2 0  9998,2 53150  53.2186 134.1379 0000809 123.0028 237.1042 15.08827690 32877,6917.918,95.438,540.343,539.223,0.0
53150.0,STARLINK-4038,PAYLOAD,2023-02-18 14:15:13,15.08838052,0.0001075,53.2208,129.9754,107.321,252.79,0.0010135,0.00015878,0.0,0 STARLINK-4038,1 53150U 22083U   23049.59390403  .00015878  00000-0  10135-2 0  9991,2 53150  53.2208 129.9754 0001075 107.3210 252.7900 15.08838052 33012,6917.886,95.438,540.495,539.008,0.0
53150.0,STARLINK-4038,PAYLOAD,2023-02-18 17:25:59,15.08850985,7.62e-05,53.2182,129.3779,126.1389,233.9674,0.0014848,0.00023429,0.0,0 STARLINK-4038,1 53150U 22083U   23049.72638135  .00023429  00000-0  14848-2 0  9999,2 53150  53.2182 129.3779 0000762 126.1389 233.9674 15.08850985 33661,6917.847,95.437,540.239,539.185,0.0
53150.0,STARLINK-4038,PAYLOAD,2023-02-19 09:19:50,15.08850519,7.06e-05,53.2187,126.4074,69.4861,290.6207,0.0012516,0.00019693,0.0,0 STARLINK-4038,1 53150U 22083U   23050.38878407  .00019693  00000-0  12516-2 0  9999,2 53150  53.2187 126.4074 0000706  69.4861 290.6207 15.08850519 33760,6917.848,95.437,540.202,539.225,0.0
53150.0,STARLINK-4038,PAYLOAD,2023-02-19 14:06:00,15.0885738,9.32e-05,53.2185,125.5154,67.2821,292.8269,0.0013535,0.00021329,0.0,0 STARLINK-4038,1 53150U 22083U   23050.58750242  .00021329  00000-0  13535-2 0  9998,2 53150  53.2185 125.5154 0000932  67.2821 292.8269 15.08857380 33169,6917.827,95.436,540.337,539.048,0.0
53150.0,STARLINK-4038,PAYLOAD,2023-02-19 22:02:55,15.08848333,8.58e-05,53.2196,124.0287,251.048,109.0419,-3.3447e-05,-8.2e-06,0.0,0 STARLINK-4038,1 53150U 22083U   23050.91869655 -.00000820  00000-0 -33447-4 0  9995,2 53150  53.2196 124.0287 0000858 251.0480 109.0419 15.08848333 33842,6917.855,95.437,540.313,539.126,0.0
53150.0,STARLINK-4038,PAYLOAD,2023-02-20 13:56:47,15.0885986,8.42e-05,53.2175,121.0525,112.2224,247.8857,0.0014285,0.00022532,0.0,0 STARLINK-4038,1 53150U 22083U   23051.58109999  .00022532  00000-0  14285-2 0  9996,2 53150  53.2175 121.0525 0000842 112.2224 247.8857 15.08859860 33314,6917.82,95.436,540.267,539.102,0.0
53150.0,STARLINK-4038,PAYLOAD,2023-02-21 10:36:47,15.08859069,0.000108,53.2173,117.1872,90.5814,269.5302,0.00088847,0.00013888,0.0,0 STARLINK-4038,1 53150U 22083U   23052.44222128  .00013888  00000-0  88847-3 0  9992,2 53150  53.2173 117.1872 0001080  90.5814 269.5302 15.08859069 34072,6917.822,95.436,540.434,538.94,0.0
53150.0,STARLINK-4038,PAYLOAD,2023-02-21 15:22:57,15.08868359,0.0001075,53.2164,116.295,86.2332,273.8783,0.0012203,0.00019201,0.0,0 STARLINK-4038,1 53150U 22083U   23052.64093834  .00019201  00000-0  12203-2 0  9991,2 53150  53.2164 116.2950 0001075  86.2332 273.8783 15.08868359 33476,6917.794,95.436,540.402,538.915,0.0
53150.0,STARLINK-4038,PAYLOAD,2023-02-21 21:44:29,15.0885368,8.1e-05,53.2182,115.107,74.4954,285.6127,0.00070924,0.00011022,0.0,0 STARLINK-4038,1 53150U 22083U   23052.90589982  .00011022  00000-0  70924-3 0  9992,2 53150  53.2182 115.1070 0000810  74.4954 285.6127 15.08853680 34141,6917.839,95.437,540.264,539.143,0.0
53150.0,STARLINK-4038,PAYLOAD,2023-02-22 10:27:34,15.0885032,0.00011,53.2173,112.7273,92.0016,268.1102,0.00091693,0.00014339,0.0,0 STARLINK-4038,1 53150U 22083U   23053.43581886  .00014339  00000-0  91693-3 0  9996,2 53150  53.2173 112.7273 0001100  92.0016 268.1102 15.08850320 34223,6917.849,95.437,540.475,538.953,0.0
53150.0,STARLINK-4038,PAYLOAD,2023-02-22 13:38:20,15.0885807,0.0001094,53.2175,112.1316,93.1964,266.9154,0.00063975,9.913e-05,0.0,0 STARLINK-4038,1 53150U 22083U   23053.56829629  .00009913  00000-0  63975-3 0  9994,2 53150  53.2175 112.1316 0001094  93.1964 266.9154 15.08858070 33618,6917.825,95.436,540.447,538.933,0.0
53150.0,STARLINK-4038,PAYLOAD,2023-02-22 15:13:43,15.08860922,0.0001089,53.2179,111.8347,85.1641,274.9475,0.00062388,9.661e-05,0.0,0 STARLINK-4038,1 53150U 22083U   23053.63453508  .00009661  00000-0  62388-3 0  9998,2 53150  53.2179 111.8347 0001089  85.1641 274.9475 15.08860922 33624,6917.816,95.436,540.435,538.928,0.0
53150.0,STARLINK-4038,PAYLOAD,2023-02-23 03:56:49,15.08836631,0.0001062,53.2171,109.4559,97.8136,262.2977,0.00025943,3.843e-05,0.0,0 STARLINK-4038,1 53150U 22083U   23054.16446296  .00003843  00000-0  25943-3 0  9995,2 53150  53.2171 109.4559 0001062  97.8136 262.2977 15.08836631 34330,6917.891,95.438,540.49,539.021,0.0
53150.0,STARLINK-4038,PAYLOAD,2023-02-23 10:18:22,15.08838436,0.000125,53.2175,108.2663,95.303,264.8105,0.0012541,0.00019726,0.0,0 STARLINK-4038,1 53150U 22083U   23054.42942504  .00019726  00000-0  12541-2 0  9993,2 53150  53.2175 108.2663 0001250  95.3030 264.8105 15.08838436 33742,6917.885,95.438,540.615,538.885,0.0
53150.0,STARLINK-4038,PAYLOAD,2023-02-23 15:04:31,15.08845942,0.0001294,53.2175,107.374,96.2595,263.8544,0.0013165,0.0002073,0.0,0 STARLINK-4038,1 53150U 22083U   23054.62814453  .00020730  00000-0  13165-2 0  9996,2 53150  53.2175 107.3740 0001294  96.2595 263.8544 15.08845942 33771,6917.862,95.437,540.622,538.832,0.0
53150.0,STARLINK-4038,PAYLOAD,2023-02-24 06:58:23,15.08850455,0.0001407,53.2177,104.4002,104.3399,255.7749,0.0012963,0.00020409,0.0,0 STARLINK-4038,1 53150U 22083U   23055.29054627  .00020409  00000-0  12963-2 0  9997,2 53150  53.2177 104.4002 0001407 104.3399 255.7749 15.08850455 34505,6917.848,95.437,540.687,538.74,0.0
